292P/Li,e,24.2589,90.9849,319.4546,6.107833,0.0652940,0.58817165,170.6589,03/28.0/2021,2000,g 12.5,4.0
# From MPEC 2021-F20
293P/Spacewatch,e,9.0564,78.4099,41.0525,3.644079,0.1416845,0.41828566,13.9908,03/28.0/2021,2000,g 14.5,4.0
# From MPEC 2020-SI8
294P/LINEAR,e,18.2272,312.5911,235.4379,3.205066,0.1717705,0.59582313,83.0900,03/28.0/2021,2000,g 15.5,4.0
# From MPC 93589
295P/LINEAR,e,21.0735,7.4229,72.9119,5.306546,0.0806281,0.61610180,203.1215,03/28.0/2021,2000,g 12.0,4.0
# From MPEC 2020-SI8
296P/Garradd,e,25.2297,263.6301,350.1169,3.498055,0.1506482,0.47879617,28.7890,03/28.0/2021,2000,g 14.0,4.0
# From MPC102956
297P/Beshore,e,10.3286,97.6596,132.5078,3.442173,0.1543317,0.31920200,9.8945,03/28.0/2021,2000,g 15.0,4.0
# From MPC114609
298P/Christensen,e,7.8705,52.8222,100.6805,3.592046,0.1447742,0.38666523,29.3412,03/28.0/2021,2000,g 15.0,4.0
# From MPC101100
299P/Catalina-PANSTARRS,e,10.4752,271.6256,323.8945,4.384932,0.1073396,0.28156693,238.7266,03/28.0/2021,2000,g 11.5,4.0
# From MPC114609
300P/Catalina,e,5.6754,95.6613,222.8853,2.700010,0.2221550,0.69178064,194.7340,03/28.0/2021,2000,g 16.0,4.0
# From MPC 89014
301P/LINEAR-NEAT,e,10.3409,351.1764,193.7050,5.738674,0.0716946,0.58533156,172.3266,03/28.0/2021,2000,g 13.0,4.0
# From MPEC 2020-HN5
302P/Lemmon-PANSTARRS,e,6.0343,121.7551,208.2329,4.276398,0.1114517,0.23010194,199.4915,03/28.0/2021,2000,g 12.5,4.0
# From MPC 92278
303P/NEAT,e,7.0206,347.9708,356.8781,5.047792,0.0869064,0.51055202,204.5561,03/28.0/2021,2000,g 13.5,4.0
# From MPEC 2020-N08
304P/Ory,e,2.6067,58.9332,335.2319,3.150447,0.1762568,0.60050593,40.1138,03/28.0/2021,2000,g 16.5,4.0
# From MPC101100
305P/Skiff,e,11.6481,240.1191,147.2831,4.644132,0.0984798,0.69319466,228.9534,03/28.0/2021,2000,g 18.0,4.0
# From MPC 92278
306P/LINEAR,e,8.3110,341.3750,0.8350,3.122864,0.1785972,0.59330344,76.8120,03/28.0/2021,2000,g 19.0,4.0
# From MPC 92278
307P/LINEAR,e,4.4339,158.1493,222.1341,5.793192,0.0706850,0.67460022,161.8042,03/28.0/2021,2000,g 15.0,4.0
# From MPC109148
308P/Lagerkvist-Carsenty,e,4.8505,63.0875,333.5925,6.604699,0.0580663,0.36329202,125.0154,03/28.0/2021,2000,g 13.0,2.0
# From MPC 94284
309P/LINEAR,e,17.0233,10.1412,49.9606,4.371610,0.1078306,0.61764116,241.6204,03/28.0/2021,2000,g 15.0,4.0
# From MPC 98566
310P/Hill,e,13.1279,8.9251,31.8315,4.178280,0.1154005,0.42181796,251.4281,03/28.0/2021,2000,g 13.5,4.0
# From MPEC 2021-BE3
311P/PANSTARRS,e,4.9697,279.2273,144.5848,2.188845,0.3043558,0.11549000,52.2146,03/28.0/2021,2000,g 17.0,4.0
# From MPEC 2021-BE3
312P/NEAT,e,19.7684,144.6695,207.5398,3.466291,0.1527237,0.42782360,28.0992,03/28.0/2021,2000,g 16.0,4.0
# From MPEC 2021-BE3
313P/Gibbs,e,10.9830,105.9733,254.6744,3.162253,0.1752707,0.23497405,60.7464,03/28.0/2021,2000,g 15.0,4.0
# From MPC105243
314P/Montani,e,3.9798,267.6154,214.1495,7.270518,0.0502755,0.41602750,82.0441,03/28.0/2021,2000,g  9.5,4.0
# From MPC115888
315P/LONEOS,e,17.7680,68.9561,65.6891,4.939174,0.0897889,0.52162548,141.8374,03/28.0/2021,2000,g 11.0,4.0
# From MPC 92279
316P/LONEOS-Christensen,e,9.8515,246.6667,193.4341,4.359227,0.1082904,0.15781636,215.6585,03/28.0/2021,2000,g 13.5,4.0
# From MPEC 2020-C98
317P/WISE,e,11.9499,275.5135,334.8986,2.965164,0.1930327,0.57049982,35.2913,03/28.0/2021,2000,g 17.5,4.0
# From MPC102103
318P/McNaught-Hartley,e,17.8767,35.5984,313.1616,7.497874,0.0480061,0.67518534,95.1223,03/28.0/2021,2000,g  8.5,6.0
# From MPC 97499
319P/Catalina-McNaught,e,15.0950,111.3765,203.6475,3.567638,0.1462624,0.66661287,306.1136,03/28.0/2021,2000,g 15.0,4.0
# From MPC 96281
320P/McNaught,e,4.9089,295.9295,0.7743,3.093772,0.1811221,0.68573410,12.6532,03/28.0/2021,2000,g 20.5,4.0
# From MPC105243
321P/SOHO,e,20.0726,165.0262,172.7378,2.423359,0.2612627,0.98109909,0.0000,01/17.2953/2020,2000,g 20.0,4.0
# From MPC102103
322P/SOHO,e,11.4638,351.4968,56.9039,2.508028,0.2481449,0.97980137,0.0000,08/31.4443/2019,2000,g 19.0,4.0
# From MPEC 2016-Y36
323P/SOHO,e,5.3387,324.3750,353.0536,2.582179,0.2375334,0.98484298,0.0000,01/17.7620/2021,2000,g 20.0,4.0
# From MPC108598
324P/La Sagra,e,21.4068,270.6277,57.6971,3.097766,0.1807720,0.15468758,352.9369,03/28.0/2021,2000,g 13.0,4.0
# From MPC114609
325P/Yang-Gao,e,16.6955,257.5716,343.6890,3.523898,0.1489941,0.59356948,305.4471,03/28.0/2021,2000,g 14.0,4.0
# From MPC103849
326P/Hill,e,2.4708,99.8122,278.5881,4.063730,0.1203142,0.31762682,238.7378,03/28.0/2021,2000,g 13.5,4.0
# From MPC 97499
327P/Van Ness,e,36.2493,173.9803,185.0305,3.562387,0.1465860,0.56298754,283.2635,03/28.0/2021,2000,g 16.0,4.0
# From MPC109148
328P/LONEOS-Tucker,e,17.6718,341.6305,30.4830,4.194948,0.1147134,0.55202003,220.2499,03/28.0/2021,2000,g 14.5,4.0
# From MPC101101
329P/LINEAR-Catalina,e,21.6698,87.6781,343.5351,5.191808,0.0833156,0.67706228,162.0636,03/28.0/2021,2000,g 13.5,4.0
# From MPC105243
330P/Catalina,e,15.6943,293.0957,188.9719,6.629945,0.0577350,0.54837289,96.6788,03/28.0/2021,2000,g 12.0,4.0
# From MPEC 2021-BE3
331P/Gibbs,e,9.7387,216.7761,183.8537,3.004030,0.1892987,0.04087341,33.8565,03/28.0/2021,2000,g 12.0,4.0
# From MPEC 2016-K18
332P/Ikeya-Murakami,e,9.3799,3.7881,152.3465,3.089084,0.1815346,0.48946488,333.9626,03/28.0/2021,2000,g 18.0,4.0
# From MPEC 2016-EI8
332P-B/Ikeya-Murakami,e,9.3805,3.8028,152.3711,3.082329,0.1821317,0.48970701,359.9699,03/17.0/2016,2000,g 19.0,4.0
# From MPEC 2016-K18
332P-C/Ikeya-Murakami,e,9.3789,3.7885,152.3378,3.089050,0.1815376,0.48947033,333.9763,03/28.0/2021,2000,g 16.5,4.0
# From MPEC 2016-ED0
332P-D/Ikeya-Murakami,e,9.3761,3.7923,152.4393,3.081138,0.1822373,0.48977814,359.9486,03/17.0/2016,2000,g 19.0,4.0
# From MPEC 2016-ED0
332P-E/Ikeya-Murakami,e,9.3774,3.8228,152.2825,3.079877,0.1823493,0.48922008,359.9889,03/17.0/2016,2000,g 21.0,4.0
# From MPEC 2016-ED0
332P-F/Ikeya-Murakami,e,9.5293,3.4757,152.8203,3.163214,0.1751908,0.49918860,359.8501,03/17.0/2016,2000,g 21.0,4.0
# From MPEC 2016-ED0
332P-G/Ikeya-Murakami,e,9.2523,3.6955,154.4000,3.050519,0.1849880,0.49200362,359.9006,03/19.0/2016,2000,g 19.0,4.0
# From MPC100285
332P-H/Ikeya-Murakami,e,9.3794,3.7882,152.3385,3.089234,0.1815214,0.48950545,333.9136,03/28.0/2021,2000,g 19.0,4.0
# From MPEC 2016-ED0
332P-I/Ikeya-Murakami,e,9.3791,3.8048,152.3297,3.081767,0.1821815,0.48955490,359.9360,03/17.0/2016,2000,g 20.5,2.0
# From MPEC 2016-EI8
332P-J/Ikeya-Murakami,e,9.4296,3.6729,152.7712,3.115165,0.1792596,0.49429435,359.8613,03/17.0/2016,2000,g 20.5,2.0
# From MPEC 2020-L06
333P/LINEAR,e,131.9799,115.6252,26.0123,4.219008,0.1137335,0.73677688,207.3071,03/28.0/2021,2000,g 15.0,4.0
# From MPC115888
334P/NEAT,e,20.4406,90.6881,90.0445,6.838508,0.0551140,0.35195892,76.5910,03/28.0/2021,2000,g 10.5,4.0
# From MPC100285
335P/Gibbs,e,7.2933,330.8474,162.2563,3.578225,0.1456139,0.54572759,286.8881,03/28.0/2021,2000,g 17.0,4.0
# From MPC105244
336P/McNaught,e,17.8338,298.2289,308.7560,5.032008,0.0873156,0.44519749,132.2276,03/28.0/2021,2000,g 13.5,4.0
# From MPC115888
337P/WISE,e,15.3725,106.0702,160.9972,3.287293,0.1653661,0.49681742,283.9207,03/28.0/2021,2000,g 17.0,4.0
# From MPC104796
338P/McNaught,e,25.3778,9.7892,4.3991,3.897349,0.1281003,0.41137704,203.1856,03/28.0/2021,2000,g 12.0,4.0
# From MPC101101
339P/Gibbs,e,5.7341,172.7351,27.5189,3.696421,0.1386858,0.63561783,237.1098,03/28.0/2021,2000,g 17.0,4.0
# From MPC102957
340P/Boattini,e,2.0794,291.7234,35.8336,4.251264,0.1124416,0.28075445,178.6166,03/28.0/2021,2000,g 13.0,4.0
# From MPEC 2021-BE3
341P/Gibbs,e,3.7954,29.9827,312.1444,4.293626,0.1107816,0.41541956,195.4081,03/28.0/2021,2000,g 12.5,4.0
# From MPC101101
342P/SOHO,e,11.6683,27.8689,73.1215,3.043335,0.1856434,0.98281638,0.0000,10/19.2831/2021,2000,g  9.0,4.0
# From MPC109148
343P/NEAT-LONEOS,e,5.5841,257.2119,137.3731,5.460627,0.0772397,0.58413131,117.3834,03/28.0/2021,2000,g 14.0,4.0
# From MPC109148
344P/Read,e,3.4907,273.1776,140.3839,4.866011,0.0918215,0.42184443,147.6759,03/28.0/2021,2000,g 13.0,4.0
# From MPC109148
345P/LINEAR,e,2.7270,154.5041,196.3827,4.039032,0.1214194,0.22095310,208.1563,03/28.0/2021,2000,g 12.0,4.0
# From MPC110086
346P/Catalina,e,22.1863,102.4668,335.9844,4.475912,0.1040835,0.50234285,156.4897,03/28.0/2021,2000,g 14.0,4.0
# From MPC108599
347P/PANSTARRS,e,11.7491,261.0337,98.3248,3.606327,0.1439151,0.38568640,238.5165,03/28.0/2021,2000,g 15.0,4.0
# From MPEC 2020-SI8
348P/PANSTARRS,e,17.7406,312.9420,135.6021,3.150780,0.1762288,0.30670220,303.3649,03/28.0/2021,2000,g 14.0,4.0
# From MPC112394
349P/Lemmon,e,5.4909,331.7440,256.0493,3.572956,0.1459361,0.29907316,191.2375,03/28.0/2021,2000,g 14.0,4.0
# From MPC111775
350P/McNaught,e,7.3570,65.3453,140.2948,4.092429,0.1190508,0.09136514,142.6677,03/28.0/2021,2000,g 14.0,4.0
# From MPC105244
351P/Wiegert-PANSTARRS,e,12.7886,283.4490,352.6590,4.437418,0.1054408,0.29592391,206.2365,03/28.0/2021,2000,g 12.5,4.0
# From MPC110086
352P/Skiff,e,21.0089,28.0711,309.1793,6.637157,0.0576409,0.61821971,79.2282,03/28.0/2021,2000,g 11.5,4.0
# From MPEC 2020-AA5
353P/McNaught,e,28.4247,121.5623,230.3802,4.171297,0.1156904,0.47008783,137.9291,03/28.0/2021,2000,g 14.5,4.0
# From MPC105545
354P/LINEAR,e,5.2556,320.1293,132.9769,2.289667,0.2844760,0.12566638,95.2212,03/28.0/2021,2000,g 15.5,4.0
# From MPEC 2020-AA5
355P/LINEAR-NEAT,e,11.0386,51.4340,336.2505,3.471991,0.1523478,0.50710592,192.2640,03/28.0/2021,2000,g 15.5,2.0
# From MPEC 2021-F20
356P/WISE,e,9.6367,160.7930,225.9952,4.159932,0.1161648,0.35492479,139.0174,03/28.0/2021,2000,g 14.0,4.0
# From MPC114609
357P/Hill,e,6.3111,44.5724,1.4011,4.460895,0.1046095,0.43471892,108.1733,03/28.0/2021,2000,g 15.5,4.0
# From MPEC 2020-HN5
358P/PANSTARRS,e,11.0576,85.7093,299.7276,3.147853,0.1764747,0.23835701,190.8353,03/28.0/2021,2000,g 18.0,4.0
# From MPC110086
359P/LONEOS,e,10.2667,149.7561,200.1496,4.639583,0.0986247,0.32406312,129.6433,03/28.0/2021,2000,g 13.5,4.0
# From MPC108599
360P/WISE,e,24.1030,2.1904,354.1232,3.702401,0.1383499,0.49884412,182.1524,03/28.0/2021,2000,g 19.5,6.0
# From MPC114609
